0 FENGYUN 1C DEB
1 31365U 99025BRV 13281.50491514  .00001652  00000-0  85008-3 0  9254
2 31365 098.9648 292.3044 0059562 117.0495 044.7726 14.15704245333936
0 FENGYUN 1C DEB
1 31365U 99025BRV 13283.89922693  .00002100  00000-0  10746-2 0  9261
2 31365 098.9644 294.7129 0059551 110.3904 007.3770 14.15715636334279
0 FENGYUN 1C DEB
1 31365U 99025BRV 13286.00703921  .00001945  00000-0  99689-3 0  9279
2 31365 098.9640 296.8330 0059492 104.5335 309.9015 14.15724140334575
0 FENGYUN 1C DEB
1 31365U 99025BRV 13288.50055713  .00002960  00000-0  15046-2 0  9288
2 31365 098.9637 299.3405 0059501 097.4803 058.3954 14.15736686334927
0 FENGYUN 1C DEB
1 31365U 99025BRV 13291.23817279  .00002540  00000-0  12943-2 0  9293
2 31365 098.9633 302.0938 0059343 089.8635 330.9822 14.15749154335319
0 FENGYUN 1C DEB
1 31365U 99025BRV 13293.29963281  .00003122  00000-0  15851-2 0  9306
2 31365 098.9636 304.1668 0059306 084.0953 037.5750 14.15756804335606
0 FENGYUN 1C DEB
1 31365U 99025BRV 13295.49685182  .00002982  00000-0  15149-2 0  9315
2 31365 098.9640 306.3764 0059246 077.9309 076.1713 14.15770026335915
